GLOBALSTAR M057         
1 25943U 99058A   25227.27856836 -.00000109  00000+0 -14856-3 0  9995
2 25943  51.9971 180.5027 0002579 128.0526 232.0556 12.24827534174178
GLOBALSTAR M059         
1 25944U 99058B   25227.00802542 -.00000038  00000+0  60155-3 0  9995
2 25944  52.0026  48.0428 0001388  77.1988  96.4918 11.99981545581101
GLOBALSTAR M056         
1 25945U 99058C   25227.27016325 -.00000098  00000+0 -11941-3 0  9997
2 25945  51.9974  47.7773 0000565   2.0967 168.5344 12.04779708169740
GLOBALSTAR M031         
1 25946U 99058D   25227.61226255  .00000023  00000+0  11556-2 0  9998
2 25946  51.9969 295.6194 0000913 295.1882 212.9014 12.16039988171770
GLOBALSTAR M039         
1 25961U 99062A   25227.62918038 -.00000090  00000+0  77202-4 0  9995
2 25961  51.9842  87.6674 0003205 107.3991 252.7226 12.62330771187725
GLOBALSTAR M034         
1 25962U 99062B   25227.46666154 -.00000063  00000+0  27873-3 0  9995
2 25962  51.9839 217.2947 0014006 153.5284  13.4354 11.79447720145385
GLOBALSTAR M029         
1 25963U 99062C   25227.48381685 -.00000061  00000+0  31809-3 0  9993
2 25963  51.9812 294.7453 0002505 226.0423 147.0422 11.99899636176249
GLOBALSTAR M061         
1 25964U 99062D   25227.26699869 -.00000113  00000+0 -53884-3 0  9992
2 25964  51.9809  42.6321 0006827  76.9615  94.1050 11.76775369128131
